{
  "type": "FeatureCollection",
  "features": [
    {
      "type": "Feature",
      "properties": {
        "norad_id": 55973,
        "name": "TIANMU-1 03",
        "group": "weather",
        "lat": -26.522213806235765,
        "lon": -37.73263340251019,
        "alt_km": 451.8683531200795,
        "timestamp": "2025-12-09T11:33:54.442524+00:00",
        "meta_object_name": "TIANMU-1 03",
        "meta_object_id": "2023-039A",
        "meta_epoch": "2025-12-09T04:26:11.682816",
        "meta_mean_motion": 15.40761081,
        "meta_eccentricity": 0.0004504,
        "meta_inclination": 97.5112,
        "meta_ra_of_asc_node": 145.7378,
        "meta_arg_of_pericenter": 71.3161,
        "meta_mean_anomaly": 288.8574,
        "meta_ephemeris_type": 0,
        "meta_classification_type": "U",
        "meta_norad_cat_id": 55973,
        "meta_element_set_no": 999,
        "meta_rev_at_epoch": 15151,
        "meta_bstar": 0.00047095,
        "meta_mean_motion_dot": 0.00019209,
        "meta_mean_motion_ddot": 0,
        "tle_line1": "1 55973U 23039A   25343.18485744  .00019209  00000+0  47095-3 0  9992",
        "tle_line2": "2 55973  97.5112 145.7378 0004504  71.3161 288.8574 15.40761081151511"
      },
      "geometry": {
        "type": "Point",
        "coordinates": [
          -37.73263340251019,
          -26.522213806235765
        ]
      }
    },
    {
      "type": "Feature",
      "properties": {
        "norad_id": 55974,
        "name": "TIANMU-1 04",
        "group": "weather",
        "lat": -43.03429834126135,
        "lon": 152.3049322719812,
        "alt_km": 450.704711327302,
        "timestamp": "2025-12-09T11:33:54.442538+00:00",
        "meta_object_name": "TIANMU-1 04",
        "meta_object_id": "2023-039B",
        "meta_epoch": "2025-12-09T05:31:12.622080",
        "meta_mean_motion": 15.41097164,
        "meta_eccentricity": 0.0005179,
        "meta_inclination": 97.5044,
        "meta_ra_of_asc_node": 144.9766,
        "meta_arg_of_pericenter": 66.3828,
        "meta_mean_anomaly": 293.7961,
        "meta_ephemeris_type": 0,
        "meta_classification_type": "U",
        "meta_norad_cat_id": 55974,
        "meta_element_set_no": 999,
        "meta_rev_at_epoch": 15152,
        "meta_bstar": 0.00046453,
        "meta_mean_motion_dot": 0.00019161,
        "meta_mean_motion_ddot": 0,
        "tle_line1": "1 55974U 23039B   25343.23000720  .00019161  00000+0  46453-3 0  9990",
        "tle_line2": "2 55974  97.5044 144.9766 0005179  66.3828 293.7961 15.41097164151522"
      },
      "geometry": {
        "type": "Point",
        "coordinates": [
          152.3049322719812,
          -43.03429834126135
        ]
      }
    },
    {
      "type": "Feature",
      "properties": {
        "norad_id": 55975,
        "name": "TIANMU-1 05",
        "group": "weather",
        "lat": -7.137751915605638,
        "lon": 146.6738663002712,
        "alt_km": 448.1456548718297,
        "timestamp": "2025-12-09T11:33:54.442548+00:00",
        "meta_object_name": "TIANMU-1 05",
        "meta_object_id": "2023-039C",
        "meta_epoch": "2025-12-09T05:21:41.105088",
        "meta_mean_motion": 15.40720681,
        "meta_eccentricity": 0.0004376,
        "meta_inclination": 97.5091,
        "meta_ra_of_asc_node": 145.4619,
        "meta_arg_of_pericenter": 87.6934,
        "meta_mean_anomaly": 272.4813,
        "meta_ephemeris_type": 0,
        "meta_classification_type": "U",
        "meta_norad_cat_id": 55975,
        "meta_element_set_no": 999,
        "meta_rev_at_epoch": 15150,
        "meta_bstar": 0.00047116,
        "meta_mean_motion_dot": 0.00019192,
        "meta_mean_motion_ddot": 0,
        "tle_line1": "1 55975U 23039C   25343.22339242  .00019192  00000+0  47116-3 0  9995",
        "tle_line2": "2 55975  97.5091 145.4619 0004376  87.6934 272.4813 15.40720681151504"
      },
      "geometry": {
        "type": "Point",
        "coordinates": [
          146.6738663002712,
          -7.137751915605638
        ]
      }
    },
    {
      "type": "Feature",
      "properties": {
        "norad_id": 55976,
        "name": "TIANMU-1 06",
        "group": "weather",
        "lat": -55.399647099984044,
        "lon": 157.21487486369895,
        "alt_km": 452.17172512249545,
        "timestamp": "2025-12-09T11:33:54.442559+00:00",
        "meta_object_name": "TIANMU-1 06",
        "meta_object_id": "2023-039D",
        "meta_epoch": "2025-12-09T04:01:00.927840",
        "meta_mean_motion": 15.41147487,
        "meta_eccentricity": 0.0004691,
        "meta_inclination": 97.5102,
        "meta_ra_of_asc_node": 145.8666,
        "meta_arg_of_pericenter": 83.5008,
        "meta_mean_anomaly": 276.6773,
        "meta_ephemeris_type": 0,
        "meta_classification_type": "U",
        "meta_norad_cat_id": 55976,
        "meta_element_set_no": 999,
        "meta_rev_at_epoch": 15151,
        "meta_bstar": 0.00046814,
        "meta_mean_motion_dot": 0.00019341,
        "meta_mean_motion_ddot": 0,
        "tle_line1": "1 55976U 23039D   25343.16737185  .00019341  00000+0  46814-3 0  9997",
        "tle_line2": "2 55976  97.5102 145.8666 0004691  83.5008 276.6773 15.41147487151511"
      },
      "geometry": {
        "type": "Point",
        "coordinates": [
          157.21487486369895,
          -55.399647099984044
        ]
      }
    },
    {
      "type": "Feature",
      "properties": {
        "norad_id": 56232,
        "name": "FENGYUN 3G",
        "group": "weather",
        "lat": -25.22927507722113,
        "lon": 87.57512361724231,
        "alt_km": 409.12675424332247,
        "timestamp": "2025-12-09T11:33:54.442569+00:00",
        "meta_object_name": "FENGYUN 3G",
        "meta_object_id": "2023-055A",
        "meta_epoch": "2025-12-09T04:28:26.908320",
        "meta_mean_motion": 15.53319306,
        "meta_eccentricity": 0.0009273,
        "meta_inclination": 49.9936,
        "meta_ra_of_asc_node": 245.7873,
        "meta_arg_of_pericenter": 131.6302,
        "meta_mean_anomaly": 228.5461,
        "meta_ephemeris_type": 0,
        "meta_classification_type": "U",
        "meta_norad_cat_id": 56232,
        "meta_element_set_no": 999,
        "meta_rev_at_epoch": 15047,
        "meta_bstar": 0.00060245,
        "meta_mean_motion_dot": 0.00038559,
        "meta_mean_motion_ddot": 0,
        "tle_line1": "1 56232U 23055A   25343.18642255  .00038559  00000+0  60245-3 0  9992",
        "tle_line2": "2 56232  49.9936 245.7873 0009273 131.6302 228.5461 15.53319306150474"
      },
      "geometry": {
        "type": "Point",
        "coordinates": [
          87.57512361724231,
          -25.22927507722113
        ]
      }
    },
    {
      "type": "Feature",
      "properties": {
        "norad_id": 57166,
        "name": "METEOR-M2 3",
        "group": "weather",
        "lat": 63.235318766129986,
        "lon": -125.3800562596555,
        "alt_km": 805.9714294298246,
        "timestamp": "2025-12-09T11:33:54.442579+00:00",
        "meta_object_name": "METEOR-M2 3",
        "meta_object_id": "2023-091A",
        "meta_epoch": "2025-12-09T04:16:48.760032",
        "meta_mean_motion": 14.24025408,
        "meta_eccentricity": 0.0004114,
        "meta_inclination": 98.6383,
        "meta_ra_of_asc_node": 36.7798,
        "meta_arg_of_pericenter": 18.5579,
        "meta_mean_anomaly": 341.575,
        "meta_ephemeris_type": 0,
        "meta_classification_type": "U",
        "meta_norad_cat_id": 57166,
        "meta_element_set_no": 999,
        "meta_rev_at_epoch": 12747,
        "meta_bstar": 3.3315e-05,
        "meta_mean_motion_dot": 3.3e-07,
        "meta_mean_motion_ddot": 0,
        "tle_line1": "1 57166U 23091A   25343.17834213  .00000033  00000+0  33315-4 0  9990",
        "tle_line2": "2 57166  98.6383  36.7798 0004114  18.5579 341.5750 14.24025408127475"
      },
      "geometry": {
        "type": "Point",
        "coordinates": [
          -125.3800562596555,
          63.235318766129986
        ]
      }
    },
    {
      "type": "Feature",
      "properties": {
        "norad_id": 57399,
        "name": "TIANMU-1 07",
        "group": "weather",
        "lat": 15.068809314183842,
        "lon": -144.62207594124112,
        "alt_km": 481.7617103334178,
        "timestamp": "2025-12-09T11:33:54.442589+00:00",
        "meta_object_name": "TIANMU-1 07",
        "meta_object_id": "2023-101A",
        "meta_epoch": "2025-12-09T04:33:37.456704",
        "meta_mean_motion": 15.27990199,
        "meta_eccentricity": 0.0005639,
        "meta_inclination": 97.2876,
        "meta_ra_of_asc_node": 33.118,
        "meta_arg_of_pericenter": 90.469,
        "meta_mean_anomaly": 269.7196,
        "meta_ephemeris_type": 0,
        "meta_classification_type": "U",
        "meta_norad_cat_id": 57399,
        "meta_element_set_no": 999,
        "meta_rev_at_epoch": 13261,
        "meta_bstar": 0.00032723,
        "meta_mean_motion_dot": 8.869e-05,
        "meta_mean_motion_ddot": 0,
        "tle_line1": "1 57399U 23101A   25343.19001686  .00008869  00000+0  32723-3 0  9998",
        "tle_line2": "2 57399  97.2876  33.1180 0005639  90.4690 269.7196 15.27990199132616"
      },
      "geometry": {
        "type": "Point",
        "coordinates": [
          -144.62207594124112,
          15.068809314183842
        ]
      }
    }
  ]
}